CIRBE                   
1 56188U 23054L   24047.66883239  .00057211  00000+0  15460-2 0  9997
2 56188  97.3775 305.9527 0004670 226.2423 133.8436 15.37530709 47534
ION SCV-010             
1 56192U 23054Q   24047.66773977  .00003696  00000+0  26622-3 0  9990
2 56192  97.4840 300.0259 0012787 164.9776 195.1832 15.04719756 46915
GHOST-1                 
1 56195U 23054T   24047.67655897  .00013924  00000+0  52042-3 0  9994
2 56195  97.3783 304.3441 0008035 226.8450 133.2118 15.27434590 47434
GHOST-2                 
1 56197U 23054V   24047.67215675  .00017440  00000+0  62441-3 0  9993
2 56197  97.3776 304.6333 0008310 227.6082 132.4456 15.28796868 47455
TOMORROW-R1             
1 56199U 23054X   24047.69261289  .00023414  00000+0  78749-3 0  9995
2 56199  97.3799 305.1476 0007949 229.2971 130.7580 15.30776729 47487
FACSAT-2                
1 56205U 23054AD  24047.95934428  .00014543  00000+0  48795-3 0  9995
2 56205  97.3823 305.7896 0011198 216.2172 143.8312 15.30925863 47545
CONNECTA T2.1           
1 56210U 23054AJ  24047.83596931  .00014565  00000+0  50446-3 0  9991
2 56210  97.3749 305.0392 0010343 213.6391 146.4194 15.29903688 47509
INSPIRE-SAT 7           
1 56211U 23054AK  24047.71269749  .00053014  00000+0  13696-2 0  9990
2 56211  97.3815 306.9095 0008466 209.6209 150.4558 15.38914803 47599
ROSEYCUBESAT-1          
1 56212U 23054AL  24047.79078616  .00060044  00000+0  14758-2 0  9991
2 56212  97.3818 307.2852 0008446 205.1002 154.9835 15.40405340 47623
LS3C                    
1 56214U 23054AN  24047.66225823  .00049817  00000+0  13316-2 0  9997
2 56214  97.3762 306.4815 0009031 207.9176 152.1585 15.37875068 47576
IRIS-C                  
1 56221U 23054AV  24047.70686298  .00046832  00000+0  13543-2 0  9993
2 56221  97.3776 305.6742 0007678 210.9531 149.1261 15.35447714 47515
DISCO-1                 
1 56222U 23054AW  24047.93560584  .00026286  00000+0  85032-3 0  9992
2 56222  97.3760 305.3179 0008903 223.9566 136.0968 15.32001005 47519
VIREO                   
1 56223U 23054AX  24047.94200725  .00035786  00000+0  86819-3 0  9991
2 56223  97.3738 306.7686 0006012 198.9044 161.1981 15.40942390 47620
REVELA                  
1 56224U 23054AY  24047.70963492  .00033461  00000+0  10289-2 0  9998
2 56224  97.3777 305.6675 0005046 209.5090 150.5868 15.33598536 47511
ISTANBUL                
1 56230U 23084BP  24047.89027837  .00246282  00000+0  42382-2 0  9998
2 56230  97.5100 170.2944 0003892 354.1626   5.9579 15.50188960 37947
TELEOS-2                
1 56310U 23057C   24047.88607045  .00012557  00000+0  10174-2 0  9991
2 56310   9.9887 282.6982 0001095 264.0745  95.9344 14.96410051 45079
SNIPE 4                 
1 56744U 23072B   24047.92779113  .00010700  00000+0  64273-3 0  9998
2 56744  97.5503 235.9391 0013489  86.5449 273.7323 15.10999563 40346
SNIPE 2                 
1 56745U 23072C   24047.62538711  .00019410  00000+0  11364-2 0  9992
2 56745  97.5565 235.7880 0008545 103.9652 256.2529 15.11833025 40304
2023-072G               
1 56749U 23072G   24047.92534916  .00012703  00000+0  73309-3 0  9998
2 56749  97.5302 235.6112 0010068 109.6401 250.5917 15.12437166 40363
OTTER PUP               
1 56933U 23084B   24047.84781808  .00014554  00000+0  68366-3 0  9994
2 56933  97.5231 166.8813 0008778  60.4366 299.7743 15.19685804 37719
GEISAT PRECURSOR        
1 56934U 23084C   24047.84103471  .00012752  00000+0  65490-3 0  9992
2 56934  97.5277 166.4490 0009905  92.4461 267.7906 15.16593758 37675
EIVE                    
1 56937U 23084F   24047.86408916  .00022013  00000+0  10241-2 0  9993
2 56937  97.5234 166.9173 0008201  86.4508 273.7665 15.19934477 37711
LAYAN-23                
1 56939U 23084H   24047.88956861  .00023655  00000+0  10648-2 0  9998
2 56939  97.5229 167.2055 0008332  80.3219 279.8957 15.21053078 37732
AFRL-XVI                
1 56942U 23084L   24047.90895034  .00022475  00000+0  10262-2 0  9990
2 56942  97.5271 167.2923 0009371  82.3827 277.8472 15.20566326 37732
BLACKJACK ACES-3        
1 56950U 23084U   24047.89812935  .00012210  00000+0  58238-3 0  9998
2 56950  97.5275 166.9615 0012000  73.9100 286.3455 15.19168053 37719
QPS-SAR-6 AMATERU-III   
1 56951U 23084V   24047.90687686  .00034196  00000+0  14005-2 0  9994
2 56951  97.5243 167.8220 0008824  65.2457 294.9697 15.24183795 37770
BLACKJACK ACES-4        
1 56952U 23084W   24047.91261722  .00016078  00000+0  77082-3 0  9999
2 56952  97.5265 167.0728 0012188  73.7959 286.4616 15.18923669 37726
BLACKJACK ACES-2        
1 56955U 23084Z   24047.89760190  .00015884  00000+0  75600-3 0  9990
2 56955  97.5267 166.9412 0012222  77.2059 283.0540 15.19177602 37715
BLACKJACK ACES-1        
1 56956U 23084AA  24047.91189704  .00016376  00000+0  78442-3 0  9994
2 56956  97.5261 167.0826 0012553  78.8746 281.3899 15.18946067 37725
ION SCV-011             
1 56957U 23084AB  24047.92204326  .00001211  00000+0  18555-3 0  9995
2 56957  98.0422 168.0047 0071077 333.7127  26.0480 14.73888635 36881
GHOST-3                 
1 56958U 23084AC  24047.86342681  .00011003  00000+0  55277-3 0  9998
2 56958  97.5279 166.8599 0013542  77.5112 282.7636 15.17368806 37702
PHOTON-04               
1 56959U 23084AD  24047.87124276  .00013505  00000+0  67910-3 0  9994
2 56959  97.5276 166.8408 0013619  78.6033 281.6729 15.17281327 37701
TOMORROW-R2             
1 56962U 23084AG  24047.89943834  .00013909  00000+0  67355-3 0  9990
2 56962  97.5263 167.0923 0013547  75.3290 284.9445 15.18593701 37721
AFR-1                   
1 56964U 23084AJ  24047.89506733  .00005915  00000+0  31210-3 0  9994
2 56964  97.5294 166.7042 0015223  76.9810 283.3121 15.15828780 37698
DROID.001               
1 56965U 23084AK  24047.87114099  .00015767  00000+0  75550-3 0  9994
2 56965  97.5249 167.0761 0013261  70.5449 289.7217 15.18934293 37729
MUSAT1                  
1 56967U 23084AM  24047.85938993  .00035325  00000+0  14137-2 0  9996
2 56967  97.5222 167.9825 0010931  63.0046 297.2306 15.24933693 37782
AII-DELTA               
1 56987U 23084BH  24047.88678078  .00027771  00000+0  11504-2 0  9997
2 56987  97.5185 167.8366 0012702  58.2138 302.0334 15.23805731 37783
SPEI SATELLES           
1 56991U 23084BT  24047.85100235  .00021599  00000+0  95202-3 0  9994
2 56991  97.5221 167.4867 0011085  60.1144 300.1192 15.21769125 37755
URESAT-1                
1 56992U 23084BU  24047.59678764  .00030349  00000+0  13798-2 0  9995
2 56992  97.5185 166.5061 0015228  90.9934 269.3046 15.20584288 37660
MRC-100                 
1 56993U 23084BV  24047.87808730  .00031176  00000+0  13810-2 0  9999
2 56993  97.5187 166.9163 0014597  89.4230 270.8678 15.21478874 37729
METEOR-M2 3             
1 57166U 23091A   24047.89942149  .00000029  00000+0  31880-4 0  9997
2 57166  98.7314 103.5651 0004995 116.4889 243.6802 14.23871667 33369
STRATOSAT-TK 1 (RS52S)  
1 57167U 23091B   24047.90430122  .00015201  00000+0  97880-3 0  9992
2 57167  97.6306 101.5904 0016659 170.8296 189.3239 15.08334828 35251
UMKA 1 (RS40S)          
1 57172U 23091G   24047.92714389  .00006010  00000+0  41709-3 0  9997
2 57172  97.6315 101.2527 0017658 169.2697 190.8910 15.05824478 35235
2023-091H               
1 57173U 23091H   24047.88992498  .00008906  00000+0  61294-3 0  9999
2 57173  97.6315 101.1473 0015653 180.3081 179.8139 15.06023772 35227
2023-091J               
1 57174U 23091J   24047.91656151  .00003188  00000+0  23128-3 0  9998
2 57174  97.6311 100.9578 0015984 179.1412 180.9845 15.04536353 35216
CUBEBEL 2 (EU11S)       
1 57175U 23091K   24047.90733490  .00008712  00000+0  60120-3 0  9991
2 57175  97.6301 101.1140 0015769 182.8951 177.2188 15.05927194 35222
SITRO-AIS 5 (KATYS)     
1 57176U 23091L   24047.93562122  .00008776  00000+0  60085-3 0  9997
2 57176  97.6327 101.2693 0018727 170.1513 190.0085 15.06176605 35230
ZORKIY 2M               
1 57177U 23091M   24047.86846683  .00006723  00000+0  46485-3 0  9995
2 57177  97.6334 101.2316 0018601 165.5991 194.5769 15.05904611 35222
CUBESX-HSE 3 (RS42S)    
1 57178U 23091N   24047.89677029  .00010017  00000+0  67921-3 0  9994
2 57178  97.6346 101.4050 0018317 166.1501 194.0232 15.06503854 35237
MONITOR-3 (RS58S)       
1 57180U 23091Q   24047.91943196  .00007722  00000+0  52872-3 0  9999
2 57180  97.6339 101.3569 0018695 165.3270 194.8504 15.06219740 35237
MONITOR-4 (RS57S)       
1 57182U 23091S   24047.92060895  .00007444  00000+0  50988-3 0  9995
2 57182  97.6334 101.3393 0018721 165.9084 194.2669 15.06214632 35239
MONITOR-2 (RS39S)       
1 57184U 23091U   24047.91007791  .00005259  00000+0  36243-3 0  9992
2 57184  97.6335 101.5203 0015016 159.4672 200.7162 15.06178466 35245
SVYATOBOR 1 (RS60S)     
1 57187U 23091X   24047.89744355  .00008664  00000+0  57937-3 0  9992
2 57187  97.6343 101.6941 0014618 157.6502 202.5366 15.07112990 35254
HORS 1                  
1 57188U 23091Y   24047.89214023  .00008610  00000+0  57636-3 0  9994
2 57188  97.6325 101.6520 0013918 157.9632 202.2196 15.07086967 35259
VIZARD-METEO (RS38S)    
1 57189U 23091Z   24047.87663869  .00009432  00000+0  61531-3 0  9991
2 57189  97.6342 101.8526 0013750 154.1914 206.0003 15.08012364 35264
NANOZOND 1 (RS49S)      
1 57190U 23091AA  24047.90028073  .00014120  00000+0  88432-3 0  9998
2 57190  97.6310 102.0483 0012031 160.3087 199.8609 15.09426188 35284
SITRO-AIS 6 (CHIRKIN)   
1 57192U 23091AC  24047.92585690  .00008177  00000+0  55929-3 0  9995
2 57192  97.6320 101.2761 0018518 170.1418 190.0176 15.06241754 35238
SITRO-AIS 8 (ANOKHIN)   
1 57193U 23091AD  24047.91273887  .00008157  00000+0  55551-3 0  9996
2 57193  97.6309 101.2882 0018177 172.2337 187.9175 15.06405764 35231
SITRO-AIS 7 (FARTUSHNIY)
1 57194U 23091AE  24047.92768535  .00008029  00000+0  54972-3 0  9991
2 57194  97.6320 101.2695 0018384 170.5477 189.6100 15.06208648 35232
